NORAD_CAT_ID,OBJECT_NAME,OBJECT_TYPE,EPOCH,MEAN_MOTION,ECCENTRICITY,INCLINATION,RA_OF_ASC_NODE,ARG_OF_PERICENTER,MEAN_ANOMALY,BSTAR,MEAN_MOTION_DOT,MEAN_MOTION_DDOT,TLE_LINE0,TLE_LINE1,TLE_LINE2,SEMIMAJOR_AXIS,PERIOD,APOGEE,PERIGEE,DECAYED
51988.0,STARLINK-3640,PAYLOAD,2022-08-30 14:00:01,15.0885395,0.000157,53.2186,57.165,69.5936,279.1487,-0.0028771,-0.00045804,0.0,0 STARLINK-3640,1 51988U 22025AJ  22242.58334491 -.00045804  00000-0 -28771-2 0  9991,2 51988  53.2186  57.1650 0001570  69.5936 279.1487 15.08853950  1309,6917.8380000000025,95.437,540.789,538.617,0.0
51988.0,STARLINK-3640,PAYLOAD,2022-08-30 20:00:01,15.08814893,0.0001654,53.2185,56.044,62.4555,204.9889,0.0010319,0.00016162,0.0,0 STARLINK-3640,1 51988U 22025AJ  22242.83334491  .00016162  00000-0  10319-2 0  9991,2 51988  53.2185  56.0440 0001654  62.4555 204.9889 15.08814893 27904,6917.956999999999,95.439,540.966,538.678,0.0
51988.0,STARLINK-3640,PAYLOAD,2022-08-30 22:00:00,15.08804838,0.0001634,53.2184,55.6701,61.4643,298.8762,0.0027151,0.00043146,0.0,0 STARLINK-3640,1 51988U 22025AJ  22242.91667824  .00043146  00000-0  27151-2 0  9993,2 51988  53.2184  55.6701 0001634  61.4643 298.8762 15.08804838  1310,6917.988,95.44,540.9830000000002,538.722,0.0
51988.0,STARLINK-3640,PAYLOAD,2022-08-31 14:00:01,15.08851271,0.0001534,53.2185,52.6764,69.8584,313.6307,-0.001457,-0.00023408,0.0,0 STARLINK-3640,1 51988U 22025AJ  22243.58334491 -.00023408  00000-0 -14570-2 0  9990,2 51988  53.2185  52.6764 0001534  69.8584 313.6307 15.08851271  1305,6917.846,95.437,540.7719999999998,538.65,0.0
51988.0,STARLINK-3640,PAYLOAD,2022-08-31 22:00:00,15.08816227,0.0001607,53.2182,51.1814,62.4493,332.6416,0.0027535999999999,0.00043779,0.0,0 STARLINK-3640,1 51988U 22025AJ  22243.91667824  .00043779  00000-0  27536-2 0  9993,2 51988  53.2182  51.1814 0001607  62.4493 332.6416 15.08816227 28067,6917.953,95.439,540.93,538.706,0.0
51988.0,STARLINK-3640,PAYLOAD,2022-09-01 12:00:00,15.08862834,0.0001482,53.2183,48.5612,72.2737,253.095,-0.0022386,-0.00035761,0.0,0 STARLINK-3640,1 51988U 22025AJ  22244.50001157 -.00035761  00000-0 -22386-2 0  9992,2 51988  53.2183  48.5612 0001482  72.2737 253.0950 15.08862834 28159,6917.811,95.436,540.701,538.65,0.0
51988.0,STARLINK-3640,PAYLOAD,2022-09-01 14:00:01,15.0887236,0.0001498,53.2183,48.1876,69.1101,349.2215,-0.0044972,-0.00071216,0.0,0 STARLINK-3640,1 51988U 22025AJ  22244.58335648 -.00071216  00000-0 -44972-2 0  9995,2 51988  53.2183  48.1876 0001498  69.1101 349.2215 15.08872360  1309,6917.781,95.436,540.683,538.61,0.0
51988.0,STARLINK-3640,PAYLOAD,2022-09-01 22:00:00,15.08802065,0.0001506,53.2181,46.6926,60.0628,9.8123,0.0027806999999999,0.00044199,0.0,0 STARLINK-3640,1 51988U 22025AJ  22244.91667824  .00044199  00000-0  27807-2 0  9992,2 51988  53.2181  46.6926 0001506  60.0628   9.8123 15.08802065  1302,6917.996,95.44,540.903,538.819,0.0
51988.0,STARLINK-3640,PAYLOAD,2022-09-02 12:00:02,15.08838609,0.0001457,53.2183,44.0724,70.2046,289.9822,-0.00023937,-4.095e-05,0.0,0 STARLINK-3640,1 51988U 22025AJ  22245.50002315 -.00004095  00000-0 -23937-3 0  9990,2 51988  53.2183  44.0724 0001457  70.2046 289.9822 15.08838609 28303,6917.885,95.438,540.758,538.742,0.0
51988.0,STARLINK-3640,PAYLOAD,2022-09-02 14:00:01,15.08848143,0.000149,53.2182,43.699,67.4296,25.5898,-0.0018288,-0.00029282,0.0,0 STARLINK-3640,1 51988U 22025AJ  22245.58334491 -.00029282  00000-0 -18288-2 0  9998,2 51988  53.2182  43.6990 0001490  67.4296  25.5898 15.08848143  1306,6917.855,95.437,540.751,538.69,0.0
51988.0,STARLINK-3640,PAYLOAD,2022-09-02 22:00:01,15.08816533,0.0001547,53.2181,42.2037,58.979,45.7004,0.0026479,0.00042078,0.0,0 STARLINK-3640,1 51988U 22025AJ  22245.91668981  .00042078  00000-0  26479-2 0  9996,2 51988  53.2181  42.2037 0001547  58.9790  45.7004 15.08816533  1300,6917.9519999999975,95.439,540.887,538.747,0.0
51988.0,STARLINK-3640,PAYLOAD,2022-09-03 12:00:00,15.08858635,0.0001496,53.2185,39.5837,67.639,327.26,-0.00045742,-7.564e-05,0.0,0 STARLINK-3640,1 51988U 22025AJ  22246.50001157 -.00007564  00000-0 -45742-3 0  9996,2 51988  53.2185  39.5837 0001496  67.6390 327.2600 15.08858635 28451,6917.823,95.436,540.7230000000002,538.654,0.0
51988.0,STARLINK-3640,PAYLOAD,2022-09-03 14:00:01,15.08866666,0.0001528,53.2185,39.2101,64.9568,62.844,-0.0019399,-0.00031051,0.0,0 STARLINK-3640,1 51988U 22025AJ  22246.58334491 -.00031051  00000-0 -19399-2 0  9990,2 51988  53.2185  39.2101 0001528  64.9568  62.8440 15.08866666  1307,6917.799,95.436,540.721,538.607,0.0
51988.0,STARLINK-3640,PAYLOAD,2022-09-03 22:00:00,15.08839733,0.0001538,53.2184,37.7147,55.7775,83.6462,0.00040818,6.214e-05,0.0,0 STARLINK-3640,1 51988U 22025AJ  22246.91667824  .00006214  00000-0  40818-3 0  9998,2 51988  53.2184  37.7147 0001538  55.7775  83.6462 15.08839733  1308,6917.880999999999,95.438,540.81,538.682,0.0
51988.0,STARLINK-3640,PAYLOAD,2022-09-04 14:00:01,15.08868916,0.0001460999999999,53.2189,34.7211,60.7995,101.8818,-0.0023648,-0.00037756,0.0,0 STARLINK-3640,1 51988U 22025AJ  22247.58335648 -.00037756  00000-0 -23648-2 0  9996,2 51988  53.2189  34.7211 0001461  60.7995 101.8818 15.08868916 28624,6917.792,95.436,540.668,538.646,0.0
51988.0,STARLINK-3640,PAYLOAD,2022-09-04 20:00:01,15.08843344,0.0001512,53.2189,33.5998,53.3601,27.989,0.00076819,0.0001196,0.0,0 STARLINK-3640,1 51988U 22025AJ  22247.83334491  .00011960  00000-0  76819-3 0  9995,2 51988  53.2189  33.5998 0001512  53.3601  27.9890 15.08843344  1304,6917.87,95.437,540.781,538.689,0.0
51988.0,STARLINK-3640,PAYLOAD,2022-09-05 14:00:01,15.08854534,0.0001486,53.2192,30.2321,59.4166,138.0234,-0.0019582,-0.0003133,0.0,0 STARLINK-3640,1 51988U 22025AJ  22248.58334491 -.00031330  00000-0 -19582-2 0  9996,2 51988  53.2192  30.2321 0001486  59.4166 138.0234 15.08854534  1304,6917.8359999999975,95.437,540.729,538.673,0.0
51988.0,STARLINK-3640,PAYLOAD,2022-09-05 22:00:00,15.08837019,0.0001524,53.219,28.7363,52.4038,156.636,-0.002224,-0.00035506,0.0,0 STARLINK-3640,1 51988U 22025AJ  22248.91667824 -.00035506  00000-0 -22240-2 0  9996,2 51988  53.2190  28.7363 0001524  52.4038 156.6360 15.08837019  1309,6917.89,95.438,540.809,538.7,0.0
51988.0,STARLINK-3640,PAYLOAD,2022-09-06 12:00:00,15.08823908,0.0001449,53.2194,26.1167,61.6005,77.6753,-0.00095022,-0.00015372,0.0,0 STARLINK-3640,1 51988U 22025AJ  22249.50001157 -.00015372  00000-0 -95022-3 0  9991,2 51988  53.2194  26.1167 0001449  61.6005  77.6753 15.08823908 28915,6917.93,95.439,540.797,538.7919999999998,0.0
51988.0,STARLINK-3640,PAYLOAD,2022-09-06 14:00:01,15.08820931,0.0001488,53.2193,25.7433,58.5471,173.6221,-0.00084273,-0.00013668,0.0,0 STARLINK-3640,1 51988U 22025AJ  22249.58334491 -.00013668  00000-0 -84273-3 0  9991,2 51988  53.2193  25.7433 0001488  58.5471 173.6221 15.08820931  1304,6917.939,95.439,540.8330000000002,538.774,0.0
51988.0,STARLINK-3640,PAYLOAD,2022-09-06 22:00:00,15.08821618,0.000152,53.219,24.2473,53.438,190.2954,0.00082504,0.0001286,0.0,0 STARLINK-3640,1 51988U 22025AJ  22249.91667824  .00012860  00000-0  82504-3 0  9993,2 51988  53.2190  24.2473 0001520  53.4380 190.2954 15.08821618  1300,6917.937,95.439,540.8530000000002,538.75,0.0
51988.0,STARLINK-3640,PAYLOAD,2022-09-07 06:00:00,15.08806857,0.000137,53.2191,22.7493,61.862,193.4552,0.0033954,0.00054116,0.0,0 STARLINK-3640,1 51988U 22025AJ  22250.25001157  .00054116  00000-0  33954-2 0  9997,2 51988  53.2191  22.7493 0001370  61.8620 193.4552 15.08806857 29025,6917.982,95.44,540.794,538.899,0.0
51988.0,STARLINK-3640,PAYLOAD,2022-09-07 14:00:01,15.08846771,0.0001474,53.2192,21.2544,58.2381,208.6548,-0.00081913,-0.00013303,0.0,0 STARLINK-3640,1 51988U 22025AJ  22250.58334491 -.00013303  00000-0 -81913-3 0  9997,2 51988  53.2192  21.2544 0001474  58.2381 208.6548 15.08846771  1300,6917.86,95.437,540.744,538.705,0.0
51988.0,STARLINK-3640,PAYLOAD,2022-09-07 20:00:01,15.08828067,0.0001547,53.219,20.1327,53.6907,131.967,0.0024941,0.00039616,0.0,0 STARLINK-3640,1 51988U 22025AJ  22250.83335648  .00039616  00000-0  24941-2 0  9990,2 51988  53.2190  20.1327 0001547  53.6907 131.9670 15.08828067 29110,6917.917,95.438,540.852,538.712,0.0
51988.0,STARLINK-3640,PAYLOAD,2022-09-07 22:00:00,15.08862128,0.0001518,53.2188,19.7583,54.702,223.7826,-0.0018870999999999,-0.00030214,0.0,0 STARLINK-3640,1 51988U 22025AJ  22250.91667824 -.00030214  00000-0 -18871-2 0  9995,2 51988  53.2188  19.7583 0001518  54.7020 223.7826 15.08862128  1301,6917.813,95.436,540.7280000000002,538.628,0.0
51988.0,STARLINK-3640,PAYLOAD,2022-09-08 06:00:00,15.08813034,0.0001472,53.2189,18.2603,64.4652,225.6423,0.0030364999999999,0.00048334,0.0,0 STARLINK-3640,1 51988U 22025AJ  22251.25001157  .00048334  00000-0  30365-2 0  9996,2 51988  53.2189  18.2603 0001472  64.4652 225.6423 15.08813034 29178,6917.9630000000025,95.439,540.846,538.809,0.0
51988.0,STARLINK-3640,PAYLOAD,2022-09-08 14:00:01,15.08844298,0.0001591,53.2189,16.7655,60.238,241.4474,-0.00076263,-0.00012406,0.0,0 STARLINK-3640,1 51988U 22025AJ  22251.58334491 -.00012406  00000-0 -76263-3 0  9993,2 51988  53.2189  16.7655 0001591  60.2380 241.4474 15.08844298  1305,6917.8669999999975,95.437,540.8330000000002,538.632,0.0
51988.0,STARLINK-3640,PAYLOAD,2022-09-08 20:00:01,15.08839685,0.0001658,53.2188,15.6438,56.4941,163.8938,0.0011884,0.00018676,0.0,0 STARLINK-3640,1 51988U 22025AJ  22251.83334491  .00018676  00000-0  11884-2 0  9991,2 51988  53.2188  15.6438 0001658  56.4941 163.8938 15.08839685 29266,6917.880999999999,95.438,540.893,538.599,0.0
51988.0,STARLINK-3640,PAYLOAD,2022-09-08 22:00:00,15.08870711,0.0001631999999999,53.2186,15.2692,57.01,256.2702,-0.0031009,-0.00049343,0.0,0 STARLINK-3640,1 51988U 22025AJ  22251.91667824 -.00049343  00000-0 -31009-2 0  9997,2 51988  53.2186  15.2692 0001632  57.0100 256.2702 15.08870711  1304,6917.7869999999975,95.436,540.781,538.523,0.0
